NOAA 1 [-]              
1 04793U 70106A   22295.39955297 -.00000031  00000+0  80284-4 0  9996
2 04793 101.5425 355.9430 0031872  75.6944 295.2562 12.54008244373507
NOAA 2 (ITOS-D) [-]     
1 06235U 72082A   22295.56694581 -.00000015  00000+0  19735-3 0  9993
2 06235 101.9686 278.6546 0003818 188.4464 281.5950 12.53152887287898
NOAA 3 [-]              
1 06920U 73086A   22295.51128760 -.00000025  00000+0  15922-3 0  9990
2 06920 102.2230 277.4853 0006790  55.9663  59.2475 12.40349499216546
NOAA 4 [-]              
1 07529U 74089A   22295.54577552 -.00000024  00000+0  14119-3 0  9996
2 07529 101.9298 275.6208 0008631 220.2989 251.1224 12.53161508192466
NOAA 5 [-]              
1 09057U 76077A   22295.54419470 -.00000025  00000+0  15704-3 0  9999
2 09057 102.1166 262.2482 0009534 266.7191 206.4918 12.37775474 89463
TIROS N [-]             
1 11060U 78096A   22295.39207636  .00000145  00000+0  91075-4 0  9999
2 11060  98.6209 345.6818 0011471 134.4651 225.7465 14.18427180489601
NOAA 6 [-]              
1 11416U 79057A   22295.55143834  .00000274  00000+0  11454-3 0  9994
2 11416  98.6636 306.6076 0009339 240.8235 119.2015 14.33820170259733
NOAA 7 [-]              
1 12553U 81059A   22295.37044207  .00000050  00000+0  47196-4 0  9991
2 12553  98.9848 341.2755 0012464 113.3882 246.8604 14.17349749135776
NOAA 8 [-]              
1 13923U 83022A   22295.52619634  .00000123  00000+0  66334-4 0  9990
2 13923  98.6981 285.6407 0014709 194.0171 166.0605 14.28845369 60557
NOAA 9 [-]              
1 15427U 84123A   22295.56019889  .00000125  00000+0  86097-4 0  9994
2 15427  99.0622 270.0332 0015041 161.5226 309.1308 14.16235672954605
NOAA 10 [-]             
1 16969U 86073A   22295.54580495  .00000125  00000+0  67478-4 0  9998
2 16969  98.5815 279.4366 0011301 303.7840 166.9095 14.28234731878977
NOAA 11 [-]             
1 19531U 88089A   22295.52361603  .00000044  00000+0  43481-4 0  9999
2 19531  98.4381 277.6996 0011305 166.7416 193.4058 14.15329128758793
NOAA 12 [-]             
1 21263U 91032A   22295.56279116  .00000101  00000+0  60389-4 0  9997
2 21263  98.5216 291.8632 0013072 331.9703  28.0772 14.26020801634842
NOAA 13 [-]             
1 22739U 93050A   22295.56559202  .00000105  00000+0  78711-4 0  9997
2 22739  98.5209 269.1162 0009300 346.7770  13.3158 14.12872911505008
NOAA 14 [-]             
1 23455U 94089A   22295.55291876  .00000048  00000+0  46381-4 0  9999
2 23455  98.4412 315.3455 0008751 325.0393  35.0205 14.14214868434679
NOAA 15 [B]             
1 25338U 98030A   22295.54633538  .00000138  00000+0  75992-4 0  9995
2 25338  98.6344 323.3638 0009318 288.8920  71.1250 14.26185659271130
NOAA 16 [-]             
1 26536U 00055A   22295.47272580  .00000076  00000+0  62912-4 0  9993
2 26536  98.6216 349.9028 0010963 157.8728 202.2920 14.13352093138794
NOAA 17 [-]             
1 27453U 02032A   22295.51012731  .00000140  00000+0  78579-4 0  9992
2 27453  98.6842 239.3510 0010697 262.4670  97.5294 14.25155831 56959
NOAA 18 [B]             
1 28654U 05018A   22295.54498878  .00000184  00000+0  12309-3 0  9992
2 28654  98.9377   5.8108 0013677 335.9413  24.1118 14.12794081898014
NOAA 19 [+]             
1 33591U 09005A   22295.56076522  .00000166  00000+0  11455-3 0  9999
2 33591  99.1358 332.2980 0013831 187.3499 172.7471 14.12626031706134
SUOMI NPP [+]           
1 37849U 11061A   22295.58812738  .00000073  00000+0  55188-4 0  9992
2 37849  98.7417 232.4182 0000984  82.6177  90.1909 14.19553664569230
NOAA 20 [+]             
1 43013U 17073A   22295.58883123  .00000076  00000+0  56696-4 0  9995
2 43013  98.7256 232.1943 0001602  74.2267 285.9085 14.19552619255261
